ONEWEB-0113             
1 48050U 21025J   21351.88333477  .00000257  00000+0  66909-3 0  9998
2 48050  87.8973 286.5057 0001956  72.0062 288.1280 13.13472051 37996
ONEWEB-0112             
1 48051U 21025K   21351.87213922 -.00000030  00000+0 -11729-3 0  9991
2 48051  87.8863 286.5172 0001842  74.4682 285.6650 13.13468522 38005
ONEWEB-0156             
1 48052U 21025L   21351.88109771  .00000190  00000+0  48635-3 0  9990
2 48052  87.8980 286.4744 0001795  75.9011 284.2318 13.13475157 37983
ONEWEB-0161             
1 48053U 21025M   21351.85419381 -.00000369  00000+0 -10445-2 0  9996
2 48053  87.8913 286.5161 0001695  71.3729 288.7584 13.13471192 37911
ONEWEB-0158             
1 48054U 21025N   21351.81836665  .00000307  00000+0  80458-3 0  9993
2 48054  87.8972 286.5157 0002121  72.3943 287.7418 13.13467507 38030
ONEWEB-0157             
1 48055U 21025P   21351.84077685 -.00000192  00000+0 -56186-3 0  9991
2 48055  87.8949 286.5099 0001357  82.1342 277.9941 13.13467952 37970
ONEWEB-0162             
1 48056U 21025Q   21351.87886338  .00000148  00000+0  37124-3 0  9998
2 48056  87.8892 286.4921 0001799  81.2562 278.8771 13.13469697 37952
ONEWEB-0155             
1 48057U 21025R   21351.82508800  .00000200  00000+0  51216-3 0  9996
2 48057  87.8930 286.5112 0001781  68.9391 291.1928 13.13472369 38089
ONEWEB-0149             
1 48058U 21025S   21351.84525058 -.00000243  00000+0 -69898-3 0  9997
2 48058  87.8970 286.4787 0001940  96.4183 263.7167 13.13471782 37899
ONEWEB-0148             
1 48059U 21025T   21351.88556564  .00000284  00000+0  74208-3 0  9992
2 48059  87.8937 286.4845 0001559 110.4056 249.7240 13.13472000 38026
ONEWEB-0160             
1 48060U 21025U   21351.82733478  .00000139  00000+0  34569-3 0  9994
2 48060  87.8920 286.5177 0003093  67.7222 292.4235 13.13470994 37964
ONEWEB-0163             
1 48061U 21025V   21351.88782080  .00000298  00000+0  78212-3 0  9993
2 48061  87.8986 286.5111 0001077  81.3297 278.7954 13.13469480 38097
ONEWEB-0159             
1 48062U 21025W   21351.87655713  .00000136  00000+0  33871-3 0  9998
2 48062  87.8962 286.4336 0001155  96.6765 263.4495 13.13467812 38016
ONEWEB-0164             
1 48063U 21025X   21351.85869328 -.00000166  00000+0 -48817-3 0  9997
2 48063  87.8997 286.5197 0001848  64.4339 295.6981 13.13470996 37990
ONEWEB-0167             
1 48064U 21025Y   21351.89006520  .00000275  00000+0  71703-3 0  9998
2 48064  87.8949 286.4968 0001360  83.3715 276.7569 13.13468319 37987
ONEWEB-0166             
1 48065U 21025Z   21351.83405793 -.00000026  00000+0 -10517-3 0  9990
2 48065  87.8862 286.5327 0001528  77.0130 283.1169 13.13469247 38057
ONEWEB-0151             
1 48066U 21025AA  21351.83629444 -.00000062  00000+0 -20577-3 0  9999
2 48066  87.8962 286.5030 0001813  60.9427 299.1884 13.13469651 37999
ONEWEB-0170             
1 48067U 21025AB  21351.84301962 -.00000177  00000+0 -51989-3 0  9991
2 48067  87.8992 286.5185 0002371  48.7960 311.3373 13.13467716 37956
ONEWEB-0168             
1 48068U 21025AC  21351.82957013  .00000094  00000+0  22378-3 0  9990
2 48068  87.8975 286.5133 0001595  76.6811 283.4496 13.13471495 37968
ONEWEB-0173             
1 48069U 21025AD  21351.82283676  .00000237  00000+0  61280-3 0  9992
2 48069  87.8976 286.5210 0001205  63.0522 297.0730 13.13471476 38202
ONEWEB-0171             
1 48070U 21025AE  21351.85645469 -.00000278  00000+0 -79591-3 0  9990
2 48070  87.8905 286.4886 0001606  84.1388 275.9924 13.13472021 38020
ONEWEB-0172             
1 48071U 21025AF  21351.82035141  .00000359  00000+0  96038-3 0  9991
2 48071  87.8951 286.5893 0001435  58.3467 301.7802 13.12557131 38918
ONEWEB-0174             
1 48072U 21025AG  21351.89677774  .00000264  00000+0  68677-3 0  9996
2 48072  87.8919 286.4927 0001659 108.4754 251.6556 13.13468872 38243
ONEWEB-0175             
1 48073U 21025AH  21351.84749681 -.00000261  00000+0 -75073-3 0  9996
2 48073  87.8879 286.5564 0002069  58.2299 301.9031 13.13470958 37894
ONEWEB-0177             
1 48074U 21025AJ  21351.86092820 -.00000111  00000+0 -33794-3 0  9993
2 48074  87.8985 286.5075 0000871  72.9969 287.1255 13.13471086 38084
ONEWEB-0178             
1 48075U 21025AK  21351.87728164  .00000125  00000+0  30805-3 0  9995
2 48075  87.8916 286.4890 0001221  98.3462 261.7806 13.13362367 38130
ONEWEB-0108             
1 48076U 21025AL  21351.83852953 -.00000133  00000+0 -39960-3 0  9998
2 48076  87.8959 286.5108 0002141  85.5315 274.6058 13.13471513 38055
ONEWEB-0169             
1 48077U 21025AM  21351.86989764 -.00000032  00000+0 -12252-3 0  9996
2 48077  87.8988 286.5155 0001895  86.2282 273.9064 13.13470867 36717
ONEWEB-0176             
1 48210U 21031A   21351.78476619  .00000005  00000+0 -21464-4 0  9998
2 48210  87.9065 256.1073 0001358  72.9741 287.1538 13.14500664 32541
ONEWEB-0184             
1 48211U 21031B   21351.75939637 -.00000128  00000+0 -37958-3 0  9991
2 48211  87.8960 256.1607 0002264  33.0121 327.1149 13.14504192 32515
ONEWEB-0179             
1 48212U 21031C   21351.80379001  .00000160  00000+0  39814-3 0  9998
2 48212  87.8962 256.1422 0001143  76.6851 283.4406 13.14503840 32565
ONEWEB-0180             
1 48213U 21031D   21351.68540370 -.00000144  00000+0 -42305-3 0  9997
2 48213  87.8956 256.1766 0001294  79.3050 280.8225 13.14499226 32436
ONEWEB-0218             
1 48214U 21031E   21351.78263259 -.00000561  00000+0 -15483-2 0  9996
2 48214  87.8944 256.1397 0001769  19.3638 340.7559 13.14501808 32602
ONEWEB-0209             
1 48215U 21031F   21351.77207900 -.00000168  00000+0 -48664-3 0  9998
2 48215  87.8973 256.1541 0001436  75.4286 284.7003 13.14505038 32609
ONEWEB-0198             
1 48216U 21031G   21351.75726789 -.00000126  00000+0 -37298-3 0  9993
2 48216  87.9025 256.1398 0001050  44.1815 315.9398 13.14500795 32713
ONEWEB-0189             
1 48217U 21031H   21351.76996766 -.00000217  00000+0 -62113-3 0  9994
2 48217  87.8956 256.1440 0001182  43.1365 316.9857 13.14503865 32452
ONEWEB-0196             
1 48218U 21031J   21351.82496935 -.00000029  00000+0 -11225-3 0  9994
2 48218  87.8976 256.1241 0001619  63.8806 296.2490 13.14498298 32465
ONEWEB-0183             
1 48219U 21031K   21351.79743173  .00000018  00000+0  13154-4 0  9990
2 48219  87.8979 256.1364 0001427  78.1046 282.0244 13.14503476 32552
ONEWEB-0185             
1 48220U 21031L   21351.82705182 -.00000021  00000+0 -89916-4 0  9999
2 48220  87.8968 256.1425 0001294  81.9436 278.1840 13.14503746 32487
ONEWEB-0187             
1 48221U 21031M   21351.80167530  .00000232  00000+0  59111-3 0  9992
2 48221  87.8977 256.1439 0001387  78.1690 281.9595 13.14505052 32498
ONEWEB-0192             
1 48222U 21031N   21351.77420298 -.00000154  00000+0 -44991-3 0  9997
2 48222  87.8961 256.1331 0001544  60.6186 299.5098 13.14502496 32407
ONEWEB-0219             
1 48223U 21031P   21351.75514981 -.00000080  00000+0 -25074-3 0  9998
2 48223  87.8959 256.1359 0001404  75.4029 284.7257 13.14500474 32609
ONEWEB-0202             
1 48224U 21031Q   21351.81013449  .00000255  00000+0  65383-3 0  9998
2 48224  87.8979 256.1420 0001323  16.8646 343.2527 13.14503824 32596
ONEWEB-0204             
1 48225U 21031R   21351.79533053  .00000147  00000+0  36099-3 0  9996
2 48225  87.8994 256.1295 0002258  84.7867 275.3520 13.14505382 32488
ONEWEB-0205             
1 48226U 21031S   21351.82073885  .00000083  00000+0  18864-3 0  9992
2 48226  87.8976 256.1282 0002329  38.5876 321.5420 13.14498522 32504
ONEWEB-0206             
1 48227U 21031T   21351.79322774  .00000147  00000+0  36271-3 0  9996
2 48227  87.8945 256.1360 0001325  87.1947 272.9335 13.14503718 32454
ONEWEB-0182             
1 48228U 21031U   21351.78688494  .00000005  00000+0 -22217-4 0  9990
2 48228  87.8992 256.1483 0001274  80.5804 279.5470 13.14505395 32664
ONEWEB-0186             
1 48229U 21031V   21351.79959332  .00000202  00000+0  51119-3 0  9994
2 48229  87.8961 256.1331 0001156  65.9076 294.2174 13.14499688 32617
ONEWEB-0181             
1 48230U 21031W   21351.77631088 -.00000149  00000+0 -43505-3 0  9991
2 48230  87.9063 256.0848 0001576  70.5598 289.5702 13.14504978 32468
ONEWEB-0188             
1 48231U 21031X   21351.81646535  .00000121  00000+0  29221-3 0  9997
2 48231  87.8986 256.1482 0001306  75.9363 284.1911 13.14504697 32378
ONEWEB-0220             
1 48232U 21031Y   21351.77842586 -.00000142  00000+0 -41873-3 0  9999
2 48232  87.8955 256.1313 0000970  71.4186 288.7049 13.14505347 32632
ONEWEB-0165             
1 48233U 21031Z   21351.80804096  .00000150  00000+0  36887-3 0  9994
2 48233  87.8977 256.1496 0001109  70.3264 289.7985 13.14500542 32596
ONEWEB-0199             
1 48234U 21031AA  21351.79110438  .00000043  00000+0  81883-4 0  9991
2 48234  87.8965 256.1539 0001342  69.4898 290.6376 13.14504722 32491
ONEWEB-0203             
1 48235U 21031AB  21351.78052647 -.00000087  00000+0 -26787-3 0  9999
2 48235  87.9118 256.1029 0002008  56.9050 303.2273 13.14505720 32506
ONEWEB-0197             
1 48236U 21031AC  21351.76783609 -.00000154  00000+0 -44964-3 0  9999
2 48236  87.8971 256.1513 0001475  69.3401 290.7887 13.14505345 32410
ONEWEB-0194             
1 48237U 21031AD  21351.81226821  .00000219  00000+0  55605-3 0  9998
2 48237  87.8967 256.1458 0002114  64.8619 295.2730 13.14499902 32593
ONEWEB-0193             
1 48238U 21031AE  21351.82915898 -.00000064  00000+0 -20732-3 0  9992
2 48238  87.8975 256.1343 0001581  60.3476 299.7811 13.14506232 32544
ONEWEB-0191             
1 48239U 21031AF  21351.76361111 -.00000150  00000+0 -43999-3 0  9995
2 48239  87.8960 256.1636 0001737  64.3715 295.7594 13.14504488 32395
ONEWEB-0195             
1 48240U 21031AG  21351.81859699  .00000063  00000+0  13418-3 0  9990
2 48240  87.8966 256.1342 0001040  48.3748 311.7470 13.14503743 32386
